start=new Date('2022-03-09T00:00:00.000Z').valueOf();
sats=[{"OBJECT_ID":"2020-001BE","ELEMENT_SET_NO":"999","EPOCH":"2022-03-08T14:07:40.540224","SEMIMAJOR_AXIS":"6925.382","LAUNCH_DATE":"2020-01-07","COUNTRY_CODE":"US","EPHEMERIS_TYPE":"0","OBJECT_NAME":"STARLINK-1088","APOAPSIS":"548.338","DECAY_DATE":null,"PERIAPSIS":"546.155","REV_AT_EPOCH":"12003","OBJECT_TYPE":"PAYLOAD","SITE":"AFETR","TLE_LINE1":"1 44966U 20001BE  22067.58866366 -.00001233  00000-0 -63912-4 0  9993","REF_FRAME":"TEME","RA_OF_ASC_NODE":"30.2462","TIME_SYSTEM":"UTC","RCS_SIZE":"LARGE","INCLINATION":"53.0565","FILE":"3351330","PERIOD":"95.593","MEAN_ANOMALY":"299.1677","MEAN_MOTION":"15.06389213","ECCENTRICITY":"0.00015760","GP_ID":"198271039","ARG_OF_PERICENTER":"60.9470","MEAN_ELEMENT_THEORY":"SGP4","MEAN_MOTION_DDOT":"0.0000000000000","CLASSIFICATION_TYPE":"U","BSTAR":"-0.00006391200000","MEAN_MOTION_DOT":"-0.00001233","NORAD_CAT_ID":"44966","TLE_LINE2":"2 44966  53.0565  30.2462 0001576  60.9470 299.1677 15.06389213120032","CENTER_NAME":"EARTH"},{"RA_OF_ASC_NODE":"30.1580","RCS_SIZE":"LARGE","TIME_SYSTEM":"UTC","INCLINATION":"53.0568","FILE":"3351330","OBJECT_TYPE":"PAYLOAD","SITE":"AFETR","TLE_LINE1":"1 44967U 20001BF  22067.61079209 -.00002196  00000-0 -12866-3 0  9990","REF_FRAME":"TEME","MEAN_MOTION_DDOT":"0.0000000000000","BSTAR":"-0.00012866000000","CLASSIFICATION_TYPE":"U","MEAN_MOTION_DOT":"-0.00002196","NORAD_CAT_ID":"44967","CENTER_NAME":"EARTH","TLE_LINE2":"2 44967  53.0568  30.1580 0001604  61.4462 298.6689 15.06378927120043","PERIOD":"95.593","MEAN_ANOMALY":"298.6689","MEAN_MOTION":"15.06378927","ECCENTRICITY":"0.00016040","GP_ID":"198271289","ARG_OF_PERICENTER":"61.4462","MEAN_ELEMENT_THEORY":"SGP4","COUNTRY_CODE":"US","EPHEMERIS_TYPE":"0","OBJECT_ID":"2020-001BF","ELEMENT_SET_NO":"999","EPOCH":"2022-03-08T14:39:32.436576","SEMIMAJOR_AXIS":"6925.413","LAUNCH_DATE":"2020-01-07","REV_AT_EPOCH":"12004","PERIAPSIS":"546.167","OBJECT_NAME":"STARLINK-1089","APOAPSIS":"548.389","DECAY_DATE":null},{"OBJECT_NAME":"STARLINK-1090","DECAY_DATE":null,"APOAPSIS":"548.478","REV_AT_EPOCH":"12001","PERIAPSIS":"546.007","OBJECT_ID":"2020-001BG","ELEMENT_SET_NO":"999","SEMIMAJOR_AXIS":"6925.378","EPOCH":"2022-03-08T09:47:35.964960","LAUNCH_DATE":"2020-01-07","COUNTRY_CODE":"US","EPHEMERIS_TYPE":"0","PERIOD":"95.593","MEAN_ANOMALY":"296.3689","ECCENTRICITY":"0.00017840","GP_ID":"198238094","MEAN_MOTION":"15.06390541","MEAN_ELEMENT_THEORY":"SGP4","ARG_OF_PERICENTER":"63.7483","MEAN_MOTION_DDOT":"0.0000000000000","CLASSIFICATION_TYPE":"U","BSTAR":"-0.00015958000000","TLE_LINE2":"2 44968  53.0563  31.0582 0001784  63.7483 296.3689 15.06390541120016","CENTER_NAME":"EARTH","NORAD_CAT_ID":"44968","MEAN_MOTION_DOT":"-0.00002657","SITE":"AFETR","OBJECT_TYPE":"PAYLOAD","TLE_LINE1":"1 44968U 20001BG  22067.40805515 -.00002657  00000-0 -15958-3 0  9992","REF_FRAME":"TEME","TIME_SYSTEM":"UTC","RCS_SIZE":"LARGE","RA_OF_ASC_NODE":"31.0582","FILE":"3350976","INCLINATION":"53.0563"},{"INCLINATION":"53.0572","FILE":"3351330","RA_OF_ASC_NODE":"30.1963","TIME_SYSTEM":"UTC","RCS_SIZE":"LARGE","REF_FRAME":"TEME","TLE_LINE1":"1 44969U 20001BH  22067.59971934 -.00001111  00000-0 -55728-4 0  9996","OBJECT_TYPE":"PAYLOAD","SITE":"AFETR","NORAD_CAT_ID":"44969","MEAN_MOTION_DOT":"-0.00001111","TLE_LINE2":"2 44969  53.0572  30.1963 0001649  65.5726 294.5435 15.06390113120036","CENTER_NAME":"EARTH","BSTAR":"-0.00005572800000","CLASSIFICATION_TYPE":"U","MEAN_MOTION_DDOT":"0.0000000000000","ARG_OF_PERICENTER":"65.5726","MEAN_ELEMENT_THEORY":"SGP4","MEAN_MOTION":"15.06390113","GP_ID":"198271791","ECCENTRICITY":"0.00016490","PERIOD":"95.593","MEAN_ANOMALY":"294.5435","EPHEMERIS_TYPE":"0","COUNTRY_CODE":"US","LAUNCH_DATE":"2020-01-07","EPOCH":"2022-03-08T14:23:35.750976","SEMIMAJOR_AXIS":"6925.379","ELEMENT_SET_NO":"999","OBJECT_ID":"2020-001BH","REV_AT_EPOCH":"12003","PERIAPSIS":"546.102","APOAPSIS":"548.386","DECAY_DATE":null,"OBJECT_NAME":"STARLINK-1092"},{"LAUNCH_DATE":"2020-01-07","EPOCH":"2022-03-08T09:05:08.053152","SEMIMAJOR_AXIS":"6925.392","ELEMENT_SET_NO":"999","OBJECT_ID":"2020-001BJ","EPHEMERIS_TYPE":"0","COUNTRY_CODE":"US","APOAPSIS":"548.275","DECAY_DATE":null,"OBJECT_NAME":"STARLINK-1093","REV_AT_EPOCH":"11999","PERIAPSIS":"546.239","REF_FRAME":"TEME","TLE_LINE1":"1 44970U 20001BJ  22067.37856543 -.00002143  00000-0 -12506-3 0  9994","OBJECT_TYPE":"PAYLOAD","SITE":"AFETR","INCLINATION":"53.0550","FILE":"3350976","RA_OF_ASC_NODE":"31.1883","TIME_SYSTEM":"UTC","RCS_SIZE":"LARGE","ARG_OF_PERICENTER":"69.9266","MEAN_ELEMENT_THEORY":"SGP4","MEAN_MOTION":"15.06385831","GP_ID":"198237593","ECCENTRICITY":"0.00014700","PERIOD":"95.593","MEAN_ANOMALY":"290.1881","NORAD_CAT_ID":"44970","MEAN_MOTION_DOT":"-0.00002143","TLE_LINE2":"2 44970  53.0550  31.1883 0001470  69.9266 290.1881 15.06385831119996","CENTER_NAME":"EARTH","CLASSIFICATION_TYPE":"U","BSTAR":"-0.00012506000000","MEAN_MOTION_DDOT":"0.0000000000000"},{"PERIAPSIS":"546.098","REV_AT_EPOCH":"12004","OBJECT_NAME":"STARLINK-1107","DECAY_DATE":null,"APOAPSIS":"548.426","COUNTRY_CODE":"US","EPHEMERIS_TYPE":"0","ELEMENT_SET_NO":"999","OBJECT_ID":"2020-001BL","LAUNCH_DATE":"2020-01-07","SEMIMAJOR_AXIS":"6925.397","EPOCH":"2022-03-08T14:44:50.638272","MEAN_MOTION_DDOT":"0.0000000000000","TLE_LINE2":"2 44972  53.0581  30.1224 0001681  64.6521 295.4642 15.06384148120041","CENTER_NAME":"EARTH","MEAN_MOTION_DOT":"-0.00003200","NORAD_CAT_ID":"44972","CLASSIFICATION_TYPE":"U","BSTAR":"-0.00019612000000","PERIOD":"95.593","MEAN_ANOMALY":"295.4642","MEAN_ELEMENT_THEORY":"SGP4","ARG_OF_PERICENTER":"64.6521","GP_ID":"198270789","ECCENTRICITY":"0.00016810","MEAN_MOTION":"15.06384148","RCS_SIZE":"LARGE","TIME_SYSTEM":"UTC","RA_OF_ASC_NODE":"30.1224","FILE":"3351330","INCLINATION":"53.0581","SITE":"AFETR","OBJECT_TYPE":"PAYLOAD","REF_FRAME":"TEME","TLE_LINE1":"1 44972U 20001BL  22067.61447498 -.00003200  00000-0 -19612-3 0  9998"},{"FILE":"3351330","INCLINATION":"53.0547","TIME_SYSTEM":"UTC","RCS_SIZE":"LARGE","RA_OF_ASC_NODE":"30.2406","REF_FRAME":"TEME","TLE_LINE1":"1 44973U 20001BM  22067.59233444  .00000943  00000-0  82190-4 0  9991","OBJECT_TYPE":"PAYLOAD","SITE":"AFETR","CENTER_NAME":"EARTH","TLE_LINE2":"2 44973  53.0547  30.2406 0001551  56.5082 303.6055 15.06394247120035","MEAN_MOTION_DOT":"0.00000943","NORAD_CAT_ID":"44973","BSTAR":"0.00008219000000","CLASSIFICATION_TYPE":"U","MEAN_MOTION_DDOT":"0.0000000000000","MEAN_ELEMENT_THEORY":"SGP4","ARG_OF_PERICENTER":"56.5082","GP_ID":"198272041","ECCENTRICITY":"0.00015510","MEAN_MOTION":"15.06394247","MEAN_ANOMALY":"303.6055","PERIOD":"95.593","EPHEMERIS_TYPE":"0","COUNTRY_CODE":"US","LAUNCH_DATE":"2020-01-07","SEMIMAJOR_AXIS":"6925.366","EPOCH":"2022-03-08T14:12:57.695616","ELEMENT_SET_NO":"999","OBJECT_ID":"2020-001BM","REV_AT_EPOCH":"12003","PERIAPSIS":"546.157","DECAY_DATE":null,"APOAPSIS":"548.305","OBJECT_NAME":"STARLINK-1115"},{"DECAY_DATE":null,"APOAPSIS":"548.459","OBJECT_NAME":"STARLINK-1132","REV_AT_EPOCH":"11635","PERIAPSIS":"546.135","SEMIMAJOR_AXIS":"6925.432","EPOCH":"2022-03-08T12:00:18.222624","LAUNCH_DATE":"2020-01-29","OBJECT_ID":"2020-006A","ELEMENT_SET_NO":"999","EPHEMERIS_TYPE":"0","COUNTRY_CODE":"US","ECCENTRICITY":"0.00016780","GP_ID":"198238101","MEAN_MOTION":"15.06372708","MEAN_ELEMENT_THEORY":"SGP4","ARG_OF_PERICENTER":"57.7929","PERIOD":"95.594","MEAN_ANOMALY":"302.3222","BSTAR":"-0.00016669000000","CLASSIFICATION_TYPE":"U","TLE_LINE2":"2 45044  53.0567 350.6504 0001678  57.7929 302.3222 15.06372708116358","CENTER_NAME":"EARTH","NORAD_CAT_ID":"45044","MEAN_MOTION_DOT":"-0.00002762","MEAN_MOTION_DDOT":"0.0000000000000","TLE_LINE1":"1 45044U 20006A   22067.50021091 -.00002762  00000-0 -16669-3 0  9990","REF_FRAME":"TEME","OBJECT_TYPE":"PAYLOAD","SITE":"AFETR","FILE":"3350976","INCLINATION":"53.0567","TIME_SYSTEM":"UTC","RCS_SIZE":"LARGE","RA_OF_ASC_NODE":"350.6504"},{"OBJECT_NAME":"STARLINK-1120","DECAY_DATE":null,"APOAPSIS":"548.293","PERIAPSIS":"546.176","REV_AT_EPOCH":"11612","ELEMENT_SET_NO":"999","OBJECT_ID":"2020-006B","LAUNCH_DATE":"2020-01-29","SEMIMAJOR_AXIS":"6925.370","EPOCH":"2022-03-08T19:39:24.049440","COUNTRY_CODE":"US","EPHEMERIS_TYPE":"0","MEAN_ANOMALY":"296.0597","PERIOD":"95.593","MEAN_ELEMENT_THEORY":"SGP4","ARG_OF_PERICENTER":"64.0549","GP_ID":"198271798","ECCENTRICITY":"0.00015280","MEAN_MOTION":"15.06393157","MEAN_MOTION_DDOT":"0.0000000000000","TLE_LINE2":"2 45045  53.0564   9.2065 0001528  64.0549 296.0597 15.06393157116128","CENTER_NAME":"EARTH","NORAD_CAT_ID":"45045","MEAN_MOTION_DOT":"-0.00000247","BSTAR":"0.00000231160000","CLASSIFICATION_TYPE":"U","OBJECT_TYPE":"PAYLOAD","SITE":"AFETR","REF_FRAME":"TEME","TLE_LINE1":"1 45045U 20006B   22067.81902835 -.00000247  00000-0  23116-5 0  9991","TIME_SYSTEM":"UTC","RCS_SIZE":"LARGE","RA_OF_ASC_NODE":"9.2065","FILE":"3351330","INCLINATION":"53.0564"},{"INCLINATION":"52.9982","FILE":"3350976","RA_OF_ASC_NODE":"3.5427","RCS_SIZE":"LARGE","TIME_SYSTEM":"UTC","TLE_LINE1":"1 45046U 20006C   22067.54381003  .00016611  00000-0  10072-2 0  9995","REF_FRAME":"TEME","SITE":"AFETR","OBJECT_TYPE":"PAYLOAD","BSTAR":"0.00100720000000","CLASSIFICATION_TYPE":"U","MEAN_MOTION_DOT":"0.00016611","NORAD_CAT_ID":"45046","TLE_LINE2":"2 45046  52.9982   3.5427 0002133 100.7319 259.3911 15.10682193116146","CENTER_NAME":"EARTH","MEAN_MOTION_DDOT":"0.0000000000000","MEAN_MOTION":"15.10682193","ECCENTRICITY":"0.00021330","GP_ID":"198237600","ARG_OF_PERICENTER":"100.7319","MEAN_ELEMENT_THEORY":"SGP4","PERIOD":"95.321","MEAN_ANOMALY":"259.3911","EPHEMERIS_TYPE":"0","COUNTRY_CODE":"US","EPOCH":"2022-03-08T13:03:05.186592","SEMIMAJOR_AXIS":"6912.255","LAUNCH_DATE":"2020-01-29","OBJECT_ID":"2020-006C","ELEMENT_SET_NO":"999","PERIAPSIS":"532.646","REV_AT_EPOCH":"11614","APOAPSIS":"535.595","DECAY_DATE":null,"OBJECT_NAME":"STARLINK-1129"}];
